FLOCK 4G-25             
1 62646U 25009AP  26068.74572546  .00010373  00000+0  38902-3 0  9990
2 62646  97.4049 151.4141 0000828 316.3151  43.8023 15.27424196 63734
STARLINK-36507          
1 67409U 26005F   26068.49278569  .00025513  00000+0  93302-3 0  9996
2 67409  43.0013 239.3292 0002133 265.9144  94.1464 15.27593745  8665
